ONEWEB-0566             
1 56061U 23043R   26170.24230622  .00000071  00000+0  14131-3 0  9997
2 56061  87.9254 243.5629 0001925 108.7807 251.3536 13.21827165158504
ONEWEB-0568             
1 56062U 23043S   26170.21485351  .00000126  00000+0  29510-3 0  9994
2 56062  87.9092 228.3687 0002338  94.6257 265.5141 13.16594433159245
ONEWEB-0574             
1 56063U 23043T   26170.23557669  .00000102  00000+0  21470-3 0  9990
2 56063  87.9263 243.5669 0002058  94.0061 266.1308 13.21824312158543
ONEWEB-0575             
1 56064U 23043U   26170.20852240  .00000049  00000+0  94142-4 0  9998
2 56064  87.9093 228.3663 0002232  86.7841 273.3545 13.16594168159235
ONEWEB-0576             
1 56065U 23043V   26170.18951623 -.00000116  00000+0 -33693-3 0  9991
2 56065  87.9098 228.3780 0002151  90.7639 269.3738 13.16593993159224
ONEWEB-0577             
1 56066U 23043W   26170.19585615 -.00000054  00000+0 -17533-3 0  9993
2 56066  87.9099 228.3743 0002146  75.9790 284.1580 13.16593906159259
ONEWEB-0578             
1 56067U 23043X   26170.22212427  .00000122  00000+0  26298-3 0  9998
2 56067  87.9255 243.5676 0002325  96.2875 263.8524 13.21824713158505
ONEWEB-0579             
1 56068U 23043Y   26170.21372076  .00000021  00000+0  19007-4 0  9994
2 56068  87.9261 243.5659 0001760 103.7962 256.3368 13.21826281158513
ONEWEB-0581             
1 56069U 23043Z   26170.20217597 -.00000044  00000+0 -14787-3 0  9996
2 56069  87.9096 228.3843 0002007  81.2651 278.8707 13.16593040159229
ONEWEB-0609             
1 56070U 23043AA  26170.23492535  .00000160  00000+0  38984-3 0  9990
2 56070  87.9001 258.8037 0002023 102.8470 257.2887 13.15549860156707
ONEWEB-0613             
1 56071U 23043AB  26170.23253785  .00000221  00000+0  55197-3 0  9996
2 56071  87.8997 258.8164 0001841 108.6347 251.4984 13.15550159156703
ONEWEB-0630             
1 56072U 23043AC  26170.22779271  .00000103  00000+0  23956-3 0  9996
2 56072  87.9005 258.7888 0001798 105.1197 255.0133 13.15547385156694
ONEWEB-0632             
1 56073U 23043AD  26170.22304870  .00000133  00000+0  31863-3 0  9995
2 56073  87.9002 258.8078 0001898  95.7560 264.3786 13.15548984156696
ONEWEB-0633             
1 56074U 23043AE  26170.21670195  .00000115  00000+0  27113-3 0  9994
2 56074  87.9010 258.7847 0001885 112.9595 247.1734 13.15546758156672
ONEWEB-0634             
1 56075U 23043AF  26170.20244917 -.00000046  00000+0 -15651-3 0  9992
2 56075  87.9002 258.8275 0002340 103.2876 256.8515 13.15548963156665
ONEWEB-0635             
1 56076U 23043AG  26170.19767741 -.00000233  00000+0 -65372-3 0  9999
2 56076  87.9012 258.7910 0001942  92.6599 267.4754 13.15548017156698
